NORAD_CAT_ID,OBJECT_NAME,OBJECT_TYPE,EPOCH,MEAN_MOTION,ECCENTRICITY,INCLINATION,RA_OF_ASC_NODE,ARG_OF_PERICENTER,MEAN_ANOMALY,BSTAR,MEAN_MOTION_DOT,MEAN_MOTION_DDOT,TLE_LINE0,TLE_LINE1,TLE_LINE2,SEMIMAJOR_AXIS,PERIOD,APOGEE,PERIGEE,DECAYED
52706.0,STARLINK-3970,PAYLOAD,2023-06-01 06:27:01,15.08842213,8.52e-05,53.2174,359.0542,73.1782,286.9304,-1.3977e-06,-3.1e-06,0.0,0 STARLINK-3970,1 52706U 22053BC  23152.26876992 -.00000310  00000-0 -13977-5 0  9992,2 52706  53.2174 359.0542 0000852  73.1782 286.9304 15.08842213 58475,6917.874,95.437,540.328,539.149,0.0
52706.0,STARLINK-3970,PAYLOAD,2023-06-01 20:45:30,15.08843517,0.0001024,53.218,356.3787,84.2454,275.8655,2.9484e-05,1.82e-06,0.0,0 STARLINK-3970,1 52706U 22053BC  23152.86493230  .00000182  00000-0  29484-4 0  9992,2 52706  53.2180 356.3787 0001024  84.2454 275.8655 15.08843517 58131,6917.87,95.437,540.443,539.026,0.0
52706.0,STARLINK-3970,PAYLOAD,2023-06-02 06:17:49,15.08826493,0.0001023,53.2188,354.5936,87.4756,272.6353,0.00054615,8.412e-05,0.0,0 STARLINK-3970,1 52706U 22053BC  23153.26238283  .00008412  00000-0  54615-3 0  9999,2 52706  53.2188 354.5936 0001023  87.4756 272.6353 15.08826493 58194,6917.922,95.438,540.494,539.079,0.0
52706.0,STARLINK-3970,PAYLOAD,2023-06-02 20:36:17,15.08831955,9.09e-05,53.2183,351.9182,77.8157,282.2937,2.9096e-05,1.75e-06,0.0,0 STARLINK-3970,1 52706U 22053BC  23153.85854144  .00000175  00000-0  29096-4 0  9998,2 52706  53.2183 351.9182 0000909  77.8157 282.2937 15.08831955 58715,6917.905,95.438,540.399,539.141,0.0
52706.0,STARLINK-3970,PAYLOAD,2023-06-03 12:30:09,15.08835567,8.82e-05,53.2186,348.9444,80.7709,279.3383,0.00010524,1.387e-05,0.0,0 STARLINK-3970,1 52706U 22053BC  23154.52093959  .00001387  00000-0  10524-3 0  9993,2 52706  53.2186 348.9444 0000882  80.7709 279.3383 15.08835567 58817,6917.894,95.438,540.369,539.149,0.0
52706.0,STARLINK-3970,PAYLOAD,2023-06-03 18:51:41,15.08839873,8.73e-05,53.2186,347.7546,78.8125,281.2965,8.3838e-05,1.047e-05,0.0,0 STARLINK-3970,1 52706U 22053BC  23154.78589810  .00001047  00000-0  83838-4 0  9999,2 52706  53.2186 347.7546 0000873  78.8125 281.2965 15.08839873 58426,6917.881,95.438,540.35,539.142,0.0
52706.0,STARLINK-3970,PAYLOAD,2023-06-03 20:27:04,15.08841758,8.84e-05,53.2187,347.4572,78.4186,281.6905,9.7542e-05,1.265e-05,0.0,0 STARLINK-3970,1 52706U 22053BC  23154.85213662  .00001265  00000-0  97542-4 0  9995,2 52706  53.2187 347.4572 0000884  78.4186 281.6905 15.08841758 58869,6917.875,95.437,540.352,539.128,0.0
52706.0,STARLINK-3970,PAYLOAD,2023-06-04 12:20:56,15.08837018,9.85e-05,53.2192,344.4841,78.5693,281.541,0.00014266,1.983e-05,0.0,0 STARLINK-3970,1 52706U 22053BC  23155.51453923  .00001983  00000-0  14266-3 0  9993,2 52706  53.2192 344.4841 0000985  78.5693 281.5410 15.08837018 58962,6917.89,95.438,540.436,539.073,0.0
52706.0,STARLINK-3970,PAYLOAD,2023-06-04 21:53:14,15.08847084,8.47e-05,53.2181,342.6995,80.9804,279.1284,0.00017739,2.537e-05,0.0,0 STARLINK-3970,1 52706U 22053BC  23155.91197264  .00002537  00000-0  17739-3 0  9994,2 52706  53.2181 342.6995 0000847  80.9804 279.1284 15.08847084 59022,6917.859,95.437,540.31,539.138,0.0
52706.0,STARLINK-3970,PAYLOAD,2023-06-05 07:25:33,15.08841838,9.23e-05,53.218,340.9143,83.948,276.1618,0.00011782,1.588e-05,0.0,0 STARLINK-3970,1 52706U 22053BC  23156.30941700  .00001588  00000-0  11782-3 0  9997,2 52706  53.2180 340.9143 0000923  83.9480 276.1618 15.08841838 58652,6917.875,95.437,540.378,539.101,0.0
52706.0,STARLINK-3970,PAYLOAD,2023-06-05 12:11:43,15.08842167,9.52e-05,53.218,340.0223,83.6271,276.483,8.6341e-05,1.087e-05,0.0,0 STARLINK-3970,1 52706U 22053BC  23156.50813767  .00001087  00000-0  86341-4 0  9998,2 52706  53.2180 340.0223 0000952  83.6271 276.4830 15.08842167 59116,6917.874,95.437,540.397,539.08,0.0
52706.0,STARLINK-3970,PAYLOAD,2023-06-05 18:33:15,15.08850542,5.97e-05,53.218,338.8326,68.906,291.1996,7.8483e-05,9.62e-06,0.0,0 STARLINK-3970,1 52706U 22053BC  23156.77309049  .00000962  00000-0  78483-4 0  9999,2 52706  53.2180 338.8326 0000597  68.9060 291.1996 15.08850542 59159,6917.848,95.437,540.126,539.3,0.0
52706.0,STARLINK-3970,PAYLOAD,2023-06-06 15:13:16,15.08836735,8.79e-05,53.2181,334.9672,89.3358,270.7734,2.2317e-05,6.7e-07,0.0,0 STARLINK-3970,1 52706U 22053BC  23157.63421913  .00000067  00000-0  22317-4 0  9991,2 52706  53.2181 334.9672 0000879  89.3358 270.7734 15.08836735 58858,6917.89,95.438,540.363,539.147,0.0
52706.0,STARLINK-3970,PAYLOAD,2023-06-06 21:34:48,15.08847501,8.58e-05,53.2183,333.7787,83.0446,277.0644,5.8098e-05,6.37e-06,0.0,0 STARLINK-3970,1 52706U 22053BC  23157.89917086  .00000637  00000-0  58098-4 0  9998,2 52706  53.2183 333.7787 0000858  83.0446 277.0644 15.08847501 58897,6917.857,95.437,540.316,539.129,0.0
52706.0,STARLINK-3970,PAYLOAD,2023-06-07 07:07:07,15.08835924,9.03e-05,53.219,331.996,94.9437,265.1659,7.6942e-06,-1.65e-06,0.0,0 STARLINK-3970,1 52706U 22053BC  23158.29661888 -.00000165  00000-0  76942-5 0  9995,2 52706  53.2190 331.9960 0000903  94.9437 265.1659 15.08835924 58957,6917.893,95.438,540.383,539.133,0.0
52706.0,STARLINK-3970,PAYLOAD,2023-06-07 13:28:40,15.08833207,9.78e-05,53.2177,330.8041,102.0539,258.0563,-1.9781e-05,-6.02e-06,0.0,0 STARLINK-3970,1 52706U 22053BC  23158.56158196 -.00000602  00000-0 -19781-4 0  9992,2 52706  53.2177 330.8041 0000978 102.0539 258.0563 15.08833207 59426,6917.901,95.438,540.443,539.09,0.0
52706.0,STARLINK-3970,PAYLOAD,2023-06-07 18:14:49,15.08836209,9.46e-05,53.2178,329.9124,94.1085,266.0016,5.3e-06,-2.03e-06,0.0,0 STARLINK-3970,1 52706U 22053BC  23158.76029964 -.00000203  00000-0  53000-5 0  9993,2 52706  53.2178 329.9124 0000946  94.1085 266.0016 15.08836209 59450,6917.892,95.438,540.411,539.103,0.0
52706.0,STARLINK-3970,PAYLOAD,2023-06-08 11:44:04,15.08835878,8.06e-05,53.2184,326.642,94.0458,266.0627,5.8752e-05,6.47e-06,0.0,0 STARLINK-3970,1 52706U 22053BC  23159.48894002  .00000647  00000-0  58752-4 0  9995,2 52706  53.2184 326.6420 0000806  94.0458 266.0627 15.08835878 59569,6917.893,95.438,540.316,539.2,0.0
52706.0,STARLINK-3970,PAYLOAD,2023-06-08 18:05:36,15.08846716,7.69e-05,53.2179,325.4523,90.0028,270.1053,8.2392e-05,1.024e-05,0.0,0 STARLINK-3970,1 52706U 22053BC  23159.75389315  .00001024  00000-0  82392-4 0  9998,2 52706  53.2179 325.4523 0000769  90.0028 270.1053 15.08846716 59170,6917.86,95.437,540.257,539.193,0.0
52706.0,STARLINK-3970,PAYLOAD,2023-06-09 09:59:28,15.08833865,7.51e-05,53.2179,322.4783,101.2693,258.8383,8.2982e-05,1.033e-05,0.0,0 STARLINK-3970,1 52706U 22053BC  23160.41630127  .00001033  00000-0  82982-4 0  9998,2 52706  53.2179 322.4783 0000751 101.2693 258.8383 15.08833865 59270,6917.899,95.438,540.284,539.245,0.0
52706.0,STARLINK-3970,PAYLOAD,2023-06-09 17:56:24,15.08833348,7.36e-05,53.2178,320.9922,95.8929,264.2147,6.9223e-05,8.14e-06,0.0,0 STARLINK-3970,1 52706U 22053BC  23160.74750388  .00000814  00000-0  69223-4 0  9995,2 52706  53.2178 320.9922 0000736  95.8929 264.2147 15.08833348 59758,6917.901,95.438,540.275,539.257,0.0
52706.0,STARLINK-3970,PAYLOAD,2023-06-10 03:28:43,15.08817686,6.69e-05,53.2171,319.2084,84.862,275.2448,0.00029981,4.484e-05,0.0,0 STARLINK-3970,1 52706U 22053BC  23161.14495064  .00004484  00000-0  29981-3 0  9990,2 52706  53.2171 319.2084 0000669  84.8620 275.2448 15.08817686 59384,6917.949,95.439,540.276,539.351,0.0
52706.0,STARLINK-3970,PAYLOAD,2023-06-10 09:50:16,15.08834961,8.44e-05,53.217,318.0182,103.7003,256.4083,-1.3358e-05,-5e-06,0.0,0 STARLINK-3970,1 52706U 22053BC  23161.40990782 -.00000500  00000-0 -13358-4 0  9995,2 52706  53.2170 318.0182 0000844 103.7003 256.4083 15.08834961 59426,6917.896,95.438,540.345,539.177,0.0
52706.0,STARLINK-3970,PAYLOAD,2023-06-10 14:36:25,15.08833723,0.0001083,53.2175,317.1263,110.5553,249.5556,1.5509e-06,-2.63e-06,0.0,0 STARLINK-3970,1 52706U 22053BC  23161.60862888 -.00000263  00000-0  15509-5 0  9998,2 52706  53.2175 317.1263 0001083 110.5553 249.5556 15.08833723 59886,6917.9,95.438,540.514,539.015,0.0
52706.0,STARLINK-3970,PAYLOAD,2023-06-10 22:33:20,15.0885047,0.0001251,53.2182,315.6397,106.1973,253.9157,-2.0813e-05,-6.19e-06,0.0,0 STARLINK-3970,1 52706U 22053BC  23161.93981863 -.00000619  00000-0 -20813-4 0  9998,2 52706  53.2182 315.6397 0001251 106.1973 253.9157 15.08850470 59502,6917.848,95.437,540.579,538.848,0.0
52706.0,STARLINK-3970,PAYLOAD,2023-06-11 03:19:30,15.08844499,8.2e-05,53.2174,314.7452,83.3755,276.733,-4.0194e-06,-3.52e-06,0.0,0 STARLINK-3970,1 52706U 22053BC  23162.13854216 -.00000352  00000-0 -40194-5 0  9991,2 52706  53.2174 314.7452 0000820  83.3755 276.7330 15.08844499 59533,6917.867,95.437,540.299,539.164,0.0
52706.0,STARLINK-3970,PAYLOAD,2023-06-11 12:51:49,15.08835812,7.53e-05,53.2185,312.9638,95.3126,264.7952,6.3803e-05,7.28e-06,0.0,0 STARLINK-3970,1 52706U 22053BC  23162.53598685  .00000728  00000-0  63803-4 0  9996,2 52706  53.2185 312.9638 0000753  95.3126 264.7952 15.08835812 60023,6917.893,95.438,540.279,539.237,0.0
52706.0,STARLINK-3970,PAYLOAD,2023-06-11 19:13:21,15.08843842,0.0001005,53.2184,311.7745,90.3475,269.7632,0.00012814,1.752e-05,0.0,0 STARLINK-3970,1 52706U 22053BC  23162.80094058  .00001752  00000-0  12814-3 0  9994,2 52706  53.2184 311.7745 0001005  90.3475 269.7632 15.08843842 60067,6917.869,95.437,540.429,539.038,0.0
52706.0,STARLINK-3970,PAYLOAD,2023-06-12 03:10:17,15.08839706,9.15e-05,53.2183,310.2867,86.8435,273.2662,8.8765e-05,1.125e-05,0.0,0 STARLINK-3970,1 52706U 22053BC  23163.13214399  .00001125  00000-0  88765-4 0  9996,2 52706  53.2183 310.2867 0000915  86.8435 273.2662 15.08839706 60113,6917.881,95.438,540.379,539.113,0.0
52706.0,STARLINK-3970,PAYLOAD,2023-06-12 15:53:22,15.08837856,8.19e-05,53.2187,307.9071,89.2431,270.8655,0.00015456,2.173e-05,0.0,0 STARLINK-3970,1 52706U 22053BC  23163.66206358  .00002173  00000-0  15456-3 0  9990,2 52706  53.2187 307.9071 0000819  89.2431 270.8655 15.08837856 59761,6917.887,95.438,540.319,539.185,0.0
